#aV2015 12  6  0  0  0.00000000     288 DD+AD WGS84 FIT  NGA
## 1874      0.00000000   300.00000000 57362 0.0000000000000
+   31     1  2  3  5  6  7  8  9 10 11 12 13 14 15 16 17 18
+         19 20 21 22 23 24 25 26 27 28 29 30 31 32  0  0  0
+          0  0  0  0  0  0  0  0  0  0  0  0  0  0  0  0  0
+          0  0  0  0  0  0  0  0  0  0  0  0  0  0  0  0  0
+          0  0  0  0  0  0  0  0  0  0  0  0  0  0  0  0  0
++         2  2  2  2  2  2  2  2  2  2  2  2  2  2  2  2  2
++         2  2  2  2  2  2  2  2  2  2  2  2  2  2  0  0  0
++         0  0  0  0  0  0  0  0  0  0  0  0  0  0  0  0  0
++         0  0  0  0  0  0  0  0  0  0  0  0  0  0  0  0  0
++         0  0  0  0  0  0  0  0  0  0  0  0  0  0  0  0  0
%c cc cc ccc ccc cccc cccc cccc cccc ccccc ccccc ccccc ccccc
%c cc cc ccc ccc cccc cccc cccc cccc ccccc ccccc ccccc ccccc
%f  0.0000000  0.000000000  0.00000000000  0.000000000000000
%f  0.0000000  0.000000000  0.00000000000  0.000000000000000
%i    0    0    0    0      0      0      0      0         0
%i    0    0    0    0      0      0      0      0         0
/*      NGA, ST. LOUIS,MO.                                  
/*   EPHEMERIS COMPUTED FROM 2 DAYS OF DATA                 
/*   EPOCHA v2.4 SMOOTHER                                   
/*   G1762 IERS2010 SATAF SATAPC                            
*  2015 12  6  1 50  0.00000000
P  1 -21389.457856 -13988.173052  -7687.946644      5.995693                    
V  1   9822.504262   1226.322556 -29646.683739      0.008682                    
P  2    566.559708  16518.448439  21254.220939    597.343351                    
V  2 -24852.511176  -7910.912927   6511.712276      0.007399                    
P  3 -12669.297075 -19057.683464  13463.977069      6.048587                    
V  3   -497.114128 -17252.286228 -24906.853355     -0.047326                    
P  5   1620.181473  26100.033690   3934.013678   -167.846027                    
V  5  -4228.540130  -4464.882867  31018.262850      0.036987                    
P  6 -13704.738025  10022.311770  20420.932712    107.252606                    
V  6 -23925.735863 -10039.652644 -11138.785000      0.065315                    
P  7 -25276.298096  -5009.111293  -7099.074763    478.298260                    
V  7  -7603.196830  -5418.687353  29959.161412     -0.011820                    
P  8  -4920.374414 -15128.900545 -21216.442699    -15.100946                    
V  8  21261.778191 -16748.379053   6991.138660     -0.014381                    
P  9 -21534.870247   4081.896073  14994.437030     22.688833                    
V  9  13335.319130 -13800.273111  22878.011054      0.074435                    
P 10  11976.949983 -12900.577708 -19871.359232     37.507970                    
V 10   5326.592308  24722.554002 -12875.399921      0.075197                    
P 11 -18470.870630 -12270.807163 -15217.719623   -620.111683                    
V 11  18585.967307  -3079.442413 -20770.926089     -0.021665                    
P 12  10195.216233  21575.138507  11781.893851    351.032095                    
V 12    209.636552  15076.120375 -27332.985364      0.030205                    
P 13  -5160.632788  18409.431858 -18612.605203   -169.322255                    
V 13 -20227.894632  11604.346834  17116.590840     -0.027139                    
P 14  21939.909740 -14801.985745   -584.113145     17.274838                    
V 14    746.460608   2898.219351 -31945.549384     -0.023669                    
P 15   8596.318680  13525.708709 -21266.944368   -285.717154                    
V 15 -20237.057911  17711.397037   3444.025823     -0.019244                    
P 16    440.005575 -25979.177458   4341.573412    -60.023894                    
V 16   2666.262439   5434.311454  32022.383193      0.035108                    
P 17 -21581.361474  15224.730666   -994.405241   -195.837196                    
V 17   -206.638303  -3041.592243 -32172.610247     -0.009182                    
P 18  15922.496910   -105.782281 -20767.580893    459.846672                    
V 18   4847.821330  27259.049541   3218.671642      0.038090                    
P 19 -23580.357116   6837.991625 -10925.680656   -523.450288                    
V 19  10118.471356  -8894.880973 -27562.700288     -0.003792                    
P 20  13355.625997  20284.272230 -10832.894328    376.221755                    
V 20    -48.782654  14033.094692  26679.058574      0.028222                    
P 21  24722.525994   1476.481282  -9278.876614   -497.769148                    
V 21  10951.530440   7270.759779  27857.919656     -0.022966                    
P 22  11221.054714 -15270.962372 -18305.374097    416.999768                    
V 22   6550.322993  23114.629200 -15251.406236      0.033623                    
P 23 -14834.620690  -7388.261921  21002.318544   -148.183537                    
V 23  19968.169357 -17041.818145   7744.239643     -0.020146                    
P 24  19671.310834  14777.029506 -10269.883520     -8.870480                    
V 24 -13066.419701  -1892.116838 -27676.163181     -0.005267                    
P 25  15007.458172   9257.996599  19817.581317    -78.294358                    
V 25   3135.742968  25101.207488 -13860.496687     -0.059822                    
P 26   6090.673383 -21873.259086  13768.166483   -152.364792                    
V 26   5071.471975  16877.658609  24598.749970     -0.168607                    
P 27   6052.604014 -19757.009852 -16636.064023     41.853794                    
V 27  17392.158372 -12088.773200  20840.006387      0.032840                    
P 28 -12116.621221  11647.190162 -19914.858576    486.272465                    
V 28  -3282.179074 -26476.661612 -13145.493680      0.025510                    
P 29  20365.980313   -587.492369  17035.157016    647.205516                    
V 29 -16547.405736  13931.264645  20316.067819      0.014445                    
P 30 -20775.967177   3127.127840 -16296.420325     66.956278                    
V 30 -17953.191306 -10448.180088  20803.391038      0.053501                    
P 31  12814.704372 -10217.544505  21097.151658    292.446637                    
V 31  24153.510383  10634.759563  -9232.307904     -0.015156                    
P 32  -5141.378462 -26011.593322   4167.279434     38.860681                    
V 32   2318.885109  -5515.063839 -30504.874377      0.119871                    
EOF
